{"type": "FeatureCollection", "features": [ {"type": "Feature", "properties": {"norad_id": 33917, "name": "COSMOS 2251 DEB", "group": "cosmos-2251-debris", "lat": 20.467279387009235, "lon": -62.41067079810449, "alt_km": 896.2186857063689, "timestamp": "2025-12-11T22:43:47.663580+00:00", "meta": {"OBJECT_NAME": "COSMOS 2251 DEB", "OBJECT_ID": "1993-036DW", "EPOCH": "2025-12-11T11:24:28.970784", "MEAN_MOTION": 13.6935628, "ECCENTRICITY": 0.03312535, "INCLINATION": 74.1069, "RA_OF_ASC_NODE": 124.4666, "ARG_OF_PERICENTER": 225.6988, "MEAN_ANOMALY": 131.6529, "EPHEMERIS_TYPE": 0, "CLASSIFICATION_TYPE": "U", "NORAD_CAT_ID": 33917, "ELEMENT_SET_NO": 999, "REV_AT_EPOCH": 83716, "BSTAR": 0.0011237511, "MEAN_MOTION_DOT": 1.412e-05, "MEAN_MOTION_DDOT": 0}, "tle": {"line1": "1 33917U 93036DW  25345.47533531  .00001412  00000+0  11238-2 0  9998", "line2": "2 33917  74.1069 124.4666 0331253 225.6988 131.6529 13.69356280837163"}}, "geometry": {"type": "Point", "coordinates": [-62.41067079810449, 20.467279387009235]}}, {"type": "Feature", "properties": {"norad_id": 33920, "name": "COSMOS 2251 DEB", "group": "cosmos-2251-debris", "lat": -9.005254418661371, "lon": -62.65977367527952, "alt_km": 683.12474077162, "timestamp": "2025-12-11T22:43:47.663590+00:00", "meta": {"OBJECT_NAME": "COSMOS 2251 DEB", "OBJECT_ID": "1993-036DZ", "EPOCH": "2025-12-09T21:22:37.466688", "MEAN_MOTION": 14.58191466, "ECCENTRICITY": 0.00383772, "INCLINATION": 74.0619, "RA_OF_ASC_NODE": 303.8409, "ARG_OF_PERICENTER": 310.7658, "MEAN_ANOMALY": 49.0178, "EPHEMERIS_TYPE": 0, "CLASSIFICATION_TYPE": "U", "NORAD_CAT_ID": 33920, "ELEMENT_SET_NO": 999, "REV_AT_EPOCH": 88073, "BSTAR": 0.0030275677, "MEAN_MOTION_DOT": 0.0001411, "MEAN_MOTION_DDOT": 0}, "tle": {"line1": "1 33920U 93036DZ  25343.89071142  .00014110  00000+0  30276-2 0  9993", "line2": "2 33920  74.0619 303.8409 0038377 310.7658  49.0178 14.58191466880731"}}, "geometry": {"type": "Point", "coordinates": [-62.65977367527952, -9.005254418661371]}}, {"type": "Feature", "properties": {"norad_id": 33922, "name": "COSMOS 2251 DEB", "group": "cosmos-2251-debris", "lat": 21.861773538373217, "lon": -37.34075719062688, "alt_km": 730.3071240130012, "timestamp": "2025-12-11T22:43:47.663601+00:00", "meta": {"OBJECT_NAME": "COSMOS 2251 DEB", "OBJECT_ID": "1993-036EB", "EPOCH": "2025-12-11T12:19:31.694592", "MEAN_MOTION": 14.49500634, "ECCENTRICITY": 0.0023259, "INCLINATION": 74.0466, "RA_OF_ASC_NODE": 150.0622, "ARG_OF_PERICENTER": 260.8201, "MEAN_ANOMALY": 155.2847, "EPHEMERIS_TYPE": 0, "CLASSIFICATION_TYPE": "U", "NORAD_CAT_ID": 33922, "ELEMENT_SET_NO": 999, "REV_AT_EPOCH": 88560, "BSTAR": 0.00079589677, "MEAN_MOTION_DOT": 3.034e-05, "MEAN_MOTION_DDOT": 0}, "tle": {"line1": "1 33922U 93036EB  25345.51356128  .00003034  00000+0  79590-3 0  9992", "line2": "2 33922  74.0466 150.0622 0023259 260.8201 155.2847 14.49500634885609"}}, "geometry": {"type": "Point", "coordinates": [-37.34075719062688, 21.861773538373217]}}, {"type": "Feature", "properties": {"norad_id": 33924, "name": "COSMOS 2251 DEB", "group": "cosmos-2251-debris", "lat": 14.195819861191305, "lon": -84.33840953587882, "alt_km": 948.0537347782229, "timestamp": "2025-12-11T22:43:47.663611+00:00", "meta": {"OBJECT_NAME": "COSMOS 2251 DEB", "OBJECT_ID": "1993-036ED", "EPOCH": "2025-12-11T11:59:28.507200", "MEAN_MOTION": 13.50222615, "ECCENTRICITY": 0.04040514, "INCLINATION": 73.9135, "RA_OF_ASC_NODE": 272.1946, "ARG_OF_PERICENTER": 307.8639, "MEAN_ANOMALY": 48.6546, "EPHEMERIS_TYPE": 0, "CLASSIFICATION_TYPE": "U", "NORAD_CAT_ID": 33924, "ELEMENT_SET_NO": 999, "REV_AT_EPOCH": 82722, "BSTAR": 0.0014709423, "MEAN_MOTION_DOT": 1.536e-05, "MEAN_MOTION_DDOT": 0}, "tle": {"line1": "1 33924U 93036ED  25345.49963550  .00001536  00000+0  14709-2 0  9999", "line2": "2 33924  73.9135 272.1946 0404051 307.8639  48.6546 13.50222615827223"}}, "geometry": {"type": "Point", "coordinates": [-84.33840953587882, 14.195819861191305]}}, {"type": "Feature", "properties": {"norad_id": 33928, "name": "COSMOS 2251 DEB", "group": "cosmos-2251-debris", "lat": 6.807333251679734, "lon": 56.030522249571426, "alt_km": 694.477260005885, "timestamp": "2025-12-11T22:43:47.663621+00:00", "meta": {"OBJECT_NAME": "COSMOS 2251 DEB", "OBJECT_ID": "1993-036EH", "EPOCH": "2025-12-11T11:05:09.691008", "MEAN_MOTION": 14.47401628, "ECCENTRICITY": 0.00613942, "INCLINATION": 73.9261, "RA_OF_ASC_NODE": 54.9711, "ARG_OF_PERICENTER": 349.3553, "MEAN_ANOMALY": 10.63, "EPHEMERIS_TYPE": 0, "CLASSIFICATION_TYPE": "U", "NORAD_CAT_ID": 33928, "ELEMENT_SET_NO": 999, "REV_AT_EPOCH": 88626, "BSTAR": 0.00040177336, "MEAN_MOTION_DOT": 1.479e-05, "MEAN_MOTION_DDOT": 0}, "tle": {"line1": "1 33928U 93036EH  25345.46191772  .00001479  00000+0  40177-3 0  9994", "line2": "2 33928  73.9261  54.9711 0061394 349.3553  10.6300 14.47401628886264"}}, "geometry": {"type": "Point", "coordinates": [56.030522249571426, 6.807333251679734]}}, {"type": "Feature", "properties": {"norad_id": 33932, "name": "COSMOS 2251 DEB", "group": "cosmos-2251-debris", "lat": 10.135378839597113, "lon": 134.4462457342644, "alt_km": 781.7374086753043, "timestamp": "2025-12-11T22:43:47.663631+00:00", "meta": {"OBJECT_NAME": "COSMOS 2251 DEB", "OBJECT_ID": "1993-036EM", "EPOCH": "2025-12-11T15:16:21.694080", "MEAN_MOTION": 14.38753124, "ECCENTRICITY": 0.00352363, "INCLINATION": 74.0346, "RA_OF_ASC_NODE": 317.9525, "ARG_OF_PERICENTER": 34.4469, "MEAN_ANOMALY": 325.8959, "EPHEMERIS_TYPE": 0, "CLASSIFICATION_TYPE": "U", "NORAD_CAT_ID": 33932, "ELEMENT_SET_NO": 999, "REV_AT_EPOCH": 87982, "BSTAR": 0.0008138245, "MEAN_MOTION_DOT": 2.492e-05, "MEAN_MOTION_DDOT": 0}, "tle": {"line1": "1 33932U 93036EM  25345.63636220  .00002492  00000+0  81382-3 0  9999", "line2": "2 33932  74.0346 317.9525 0035236  34.4469 325.8959 14.38753124879820"}}, "geometry": {"type": "Point", "coordinates": [134.4462457342644, 10.135378839597113]}}, {"type": "Feature", "properties": {"norad_id": 33933, "name": "COSMOS 2251 DEB", "group": "cosmos-2251-debris", "lat": 30.551940310321942, "lon": 71.27455138734095, "alt_km": 738.1686558471492, "timestamp": "2025-12-11T22:43:47.663642+00:00", "meta": {"OBJECT_NAME": "COSMOS 2251 DEB", "OBJECT_ID": "1993-036EN", "EPOCH": "2025-12-11T14:12:29.548224", "MEAN_MOTION": 14.33486139, "ECCENTRICITY": 0.00707873, "INCLINATION": 74.0895, "RA_OF_ASC_NODE": 62.2285, "ARG_OF_PERICENTER": 70.974, "MEAN_ANOMALY": 289.9063, "EPHEMERIS_TYPE": 0, "CLASSIFICATION_TYPE": "U", "NORAD_CAT_ID": 33933, "ELEMENT_SET_NO": 999, "REV_AT_EPOCH": 87768, "BSTAR": 0.00043287658, "MEAN_MOTION_DOT": 1.205e-05, "MEAN_MOTION_DDOT": 0}, "tle": {"line1": "1 33933U 93036EN  25345.59200866  .00001205  00000+0  43288-3 0  9992", "line2": "2 33933  74.0895  62.2285 0070787  70.9740 289.9063 14.33486139877682"}}, "geometry": {"type": "Point", "coordinates": [71.27455138734095, 30.551940310321942]}}, {"type": "Feature", "properties": {"norad_id": 33934, "name": "COSMOS 2251 DEB", "group": "cosmos-2251-debris", "lat": 68.80735786689745, "lon": 149.66039967825122, "alt_km": 698.6536441850767, "timestamp": "2025-12-11T22:43:47.663652+00:00", "meta": {"OBJECT_NAME": "COSMOS 2251 DEB", "OBJECT_ID": "1993-036EP", "EPOCH": "2025-12-11T14:09:17.259840", "MEAN_MOTION": 14.5909295, "ECCENTRICITY": 0.00157017, "INCLINATION": 74.0379, "RA_OF_ASC_NODE": 102.7628, "ARG_OF_PERICENTER": 226.5544, "MEAN_ANOMALY": 133.4316, "EPHEMERIS_TYPE": 0, "CLASSIFICATION_TYPE": "U", "NORAD_CAT_ID": 33934, "ELEMENT_SET_NO": 999, "REV_AT_EPOCH": 88722, "BSTAR": 0.0015965573, "MEAN_MOTION_DOT": 7.503e-05, "MEAN_MOTION_DDOT": 0}, "tle": {"line1": "1 33934U 93036EP  25345.58978310  .00007503  00000+0  15966-2 0  9996", "line2": "2 33934  74.0379 102.7628 0015701 226.5544 133.4316 14.59092950887224"}}, "geometry": {"type": "Point", "coordinates": [149.66039967825122, 68.80735786689745]}}, {"type": "Feature", "properties": {"norad_id": 33936, "name": "COSMOS 2251 DEB", "group": "cosmos-2251-debris", "lat": 0.6175309409587393, "lon": 39.176021186006224, "alt_km": 713.840677769108, "timestamp": "2025-12-11T22:43:47.663662+00:00", "meta": {"OBJECT_NAME": "COSMOS 2251 DEB", "OBJECT_ID": "1993-036ER", "EPOCH": "2025-12-11T14:30:21.093984", "MEAN_MOTION": 14.60260184, "ECCENTRICITY": 0.00276189, "INCLINATION": 74.0188, "RA_OF_ASC_NODE": 39.6536, "ARG_OF_PERICENTER": 195.3388, "MEAN_ANOMALY": 164.6944, "EPHEMERIS_TYPE": 0, "CLASSIFICATION_TYPE": "U", "NORAD_CAT_ID": 33936, "ELEMENT_SET_NO": 999, "REV_AT_EPOCH": 88873, "BSTAR": 0.0010833408, "MEAN_MOTION_DOT": 5.23e-05, "MEAN_MOTION_DDOT": 0}, "tle": {"line1": "1 33936U 93036ER  25345.60441081  .00005230  00000+0  10833-2 0  9994", "line2": "2 33936  74.0188  39.6536 0027618 195.3388 164.6944 14.60260184888737"}}, "geometry": {"type": "Point", "coordinates": [39.176021186006224, 0.6175309409587393]}}, {"type": "Feature", "properties": {"norad_id": 33938, "name": "COSMOS 2251 DEB", "group": "cosmos-2251-debris", "lat": -66.599742862981, "lon": 70.03944673902974, "alt_km": 733.6077432468683, "timestamp": "2025-12-11T22:43:47.663673+00:00", "meta": {"OBJECT_NAME": "COSMOS 2251 DEB", "OBJECT_ID": "1993-036ET", "EPOCH": "2025-12-11T15:04:08.546880", "MEAN_MOTION": 14.46788, "ECCENTRICITY": 0.00168606, "INCLINATION": 74.045, "RA_OF_ASC_NODE": 209.2522, "ARG_OF_PERICENTER": 291.494, "MEAN_ANOMALY": 99.3784, "EPHEMERIS_TYPE": 0, "CLASSIFICATION_TYPE": "U", "NORAD_CAT_ID": 33938, "ELEMENT_SET_NO": 999, "REV_AT_EPOCH": 88384, "BSTAR": 0.00064357505, "MEAN_MOTION_DOT": 2.308e-05, "MEAN_MOTION_DDOT": 0}, "tle": {"line1": "1 33938U 93036ET  25345.62787670  .00002308  00000+0  64358-3 0  9990", "line2": "2 33938  74.0450 209.2522 0016860 291.4940  99.3784 14.46788000883849"}}, "geometry": {"type": "Point", "coordinates": [70.03944673902974, -66.599742862981]}}]}